*******************************************************************************
 Revised: Nov 05, 2015             Nix / (Pluto)                            902 

 Fit to all available observations including New Horizons encounter tracking.
*******************************************************************************
 
 
*******************************************************************************
Ephemeris / WWW_USER Mon Jan 23 09:13:24 2017 Pasadena, USA      / Horizons    
*******************************************************************************
Target body name: Nix (902)                       {source: plu055l_merged}
Center body name: Pluto (999)                     {source: plu055l_merged}
Center-site name: BODYCENTRIC
*******************************************************************************
Start time      : A.D. 2016-Nov-01 00:00:00.0000 UT      
Stop  time      : A.D. 2016-Dec-01 00:00:00.0000 UT      
Step-size       : 60 minutes
*******************************************************************************
Target pole/equ : No model available
Target radii    : (unavailable)                                                
Center geodetic : 0.00000000,0.00000000,0.0000000 {E-lon(deg),Lat(deg),Alt(km)}
Center cylindric: 0.00000000,0.00000000,0.0000000 {E-lon(deg),Dxy(km),Dz(km)}
Center pole/equ : IAU_PLUTO                       {East-longitude +}
Center radii    : 1195.0 x 1195.0 x 1195.0 km     {Equator, meridian, pole}    
Target primary  : Pluto
Vis. interferer : CHARON (R_eq= 605.000) km       {source: plu055l_merged}
Rel. light bend : Sun, PLUTO                      {source: plu055l_merged}
Rel. lght bnd GM: 1.3271E+11, 8.6934E+02 km^3/s^2                              
Atmos refraction: NO (AIRLESS)
RA format       : DEG
Time format     : CAL 
EOP file        : eop.170120.p170413                                           
EOP coverage    : DATA-BASED 1962-JAN-20 TO 2017-JAN-20. PREDICTS-> 2017-APR-12
Units conversion: 1 au= 149597870.700 km, c= 299792.458 km/s, 1 day= 86400.0 s 
Table cut-offs 1: Elevation (-90.0deg=NO ),Airmass     n.a.    , Daylight (NO )
Table cut-offs 2: Solar Elongation (  0.0,180.0=NO ),Local Hour Angle( 0.0=NO )
Table format    : Comma Separated Values (spreadsheet)
*******************************************************************************
 Date__(UT)__HR:MN:SS, , ,   ObsEcLon,   ObsEcLat,
**************************************************
$$SOE
 2016-Nov-25 16:00:00, , , 13.4525654,-52.8928125,
 2016-Nov-25 17:00:00, , , 12.8126004,-53.3439199,
 2016-Nov-25 18:00:00, , , 12.1562671,-53.7933761,
 2016-Nov-25 19:00:00, , , 11.4829841,-54.2409978,
 2016-Nov-25 20:00:00, , , 10.7921541,-54.6865901,
 2016-Nov-25 21:00:00, , , 10.0831638,-55.1299469,
 2016-Nov-25 22:00:00, , ,  9.3553847,-55.5708495,
 2016-Nov-25 23:00:00, , ,  8.6081738,-56.0090672,
 2016-Nov-26 00:00:00, , ,  7.8408742,-56.4443565,
 2016-Nov-26 01:00:00, , ,  7.0528169,-56.8764607,
 2016-Nov-26 02:00:00, , ,  6.2433217,-57.3051097,
 2016-Nov-26 03:00:00, , ,  5.4116989,-57.7300196,
 2016-Nov-26 04:00:00, , ,  4.5572519,-58.1508925,
 2016-Nov-26 05:00:00, , ,  3.6792792,-58.5674161,
 2016-Nov-26 06:00:00, , ,  2.7770776,-58.9792636,
 2016-Nov-26 07:00:00, , ,  1.8499454,-59.3860930,
 2016-Nov-26 08:00:00, , ,  0.8971866,-59.7875478,
 2016-Nov-26 09:00:00, , ,359.9181148,-60.1832560,
 2016-Nov-26 10:00:00, , ,358.9120590,-60.5728305,
 2016-Nov-26 11:00:00, , ,357.8783688,-60.9558693,
 2016-Nov-26 12:00:00, , ,356.8164206,-61.3319552,
 2016-Nov-26 13:00:00, , ,355.7256252,-61.7006563,
 2016-Nov-26 14:00:00, , ,354.6054354,-62.0615265,
 2016-Nov-26 15:00:00, , ,353.4553541,-62.4141059,
 2016-Nov-26 16:00:00, , ,352.2749438,-62.7579215,
 2016-Nov-26 17:00:00, , ,351.0638363,-63.0924880,
 2016-Nov-26 18:00:00, , ,349.8217433,-63.4173091,
 2016-Nov-26 19:00:00, , ,348.5484670,-63.7318787,
 2016-Nov-26 20:00:00, , ,347.2439115,-64.0356826,
 2016-Nov-26 21:00:00, , ,345.9080946,-64.3281999,
 2016-Nov-26 22:00:00, , ,344.5411589,-64.6089055,
 2016-Nov-26 23:00:00, , ,343.1433836,-64.8772724,
 2016-Nov-27 00:00:00, , ,341.7151952,-65.1327739,
 2016-Nov-27 01:00:00, , ,340.2571777,-65.3748869,
 2016-Nov-27 02:00:00, , ,338.7700818,-65.6030948,
 2016-Nov-27 03:00:00, , ,337.2548324,-65.8168908,
 2016-Nov-27 04:00:00, , ,335.7125345,-66.0157817,
 2016-Nov-27 05:00:00, , ,334.1444771,-66.1992911,
 2016-Nov-27 06:00:00, , ,332.5521341,-66.3669639,
 2016-Nov-27 07:00:00, , ,330.9371633,-66.5183693,
 2016-Nov-27 08:00:00, , ,329.3014009,-66.6531053,
 2016-Nov-27 09:00:00, , ,327.6468546,-66.7708022,
 2016-Nov-27 10:00:00, , ,325.9756919,-66.8711260,
 2016-Nov-27 11:00:00, , ,324.2902262,-66.9537817,
 2016-Nov-27 12:00:00, , ,322.5928988,-67.0185168,
 2016-Nov-27 13:00:00, , ,320.8862589,-67.0651230,
 2016-Nov-27 14:00:00, , ,319.1729408,-67.0934389,
 2016-Nov-27 15:00:00, , ,317.4556390,-67.1033515,
 2016-Nov-27 16:00:00, , ,315.7370819,-67.0947969,
 2016-Nov-27 17:00:00, , ,314.0200047,-67.0677608,
 2016-Nov-27 18:00:00, , ,312.3071225,-67.0222785,
 2016-Nov-27 19:00:00, , ,310.6011032,-66.9584339,
 2016-Nov-27 20:00:00, , ,308.9045428,-66.8763579,
 2016-Nov-27 21:00:00, , ,307.2199411,-66.7762268,
 2016-Nov-27 22:00:00, , ,305.5496809,-66.6582600,
 2016-Nov-27 23:00:00, , ,303.8960094,-66.5227166,
 2016-Nov-28 00:00:00, , ,302.2610226,-66.3698932,
 2016-Nov-28 01:00:00, , ,300.6466527,-66.2001195,
 2016-Nov-28 02:00:00, , ,299.0546594,-66.0137555,
 2016-Nov-28 03:00:00, , ,297.4866238,-65.8111878,
 2016-Nov-28 04:00:00, , ,295.9439459,-65.5928254,
 2016-Nov-28 05:00:00, , ,294.4278445,-65.3590969,
 2016-Nov-28 06:00:00, , ,292.9393599,-65.1104463,
 2016-Nov-28 07:00:00, , ,291.4793589,-64.8473303,
 2016-Nov-28 08:00:00, , ,290.0485413,-64.5702145,
 2016-Nov-28 09:00:00, , ,288.6474486,-64.2795712,
 2016-Nov-28 10:00:00, , ,287.2764735,-63.9758762,
 2016-Nov-28 11:00:00, , ,285.9358697,-63.6596068,
 2016-Nov-28 12:00:00, , ,284.6257634,-63.3312394,
 2016-Nov-28 13:00:00, , ,283.3461641,-62.9912476,
 2016-Nov-28 14:00:00, , ,282.0969758,-62.6401008,
 2016-Nov-28 15:00:00, , ,280.8780079,-62.2782625,
 2016-Nov-28 16:00:00, , ,279.6889861,-61.9061893,
 2016-Nov-28 17:00:00, , ,278.5295622,-61.5243296,
 2016-Nov-28 18:00:00, , ,277.3993243,-61.1331231,
 2016-Nov-28 19:00:00, , ,276.2978055,-60.7330001,
 2016-Nov-28 20:00:00, , ,275.2244924,-60.3243805,
 2016-Nov-28 21:00:00, , ,274.1788329,-59.9076742,
 2016-Nov-28 22:00:00, , ,273.1602433,-59.4832801,
 2016-Nov-28 23:00:00, , ,272.1681149,-59.0515862,
 2016-Nov-29 00:00:00, , ,271.2018195,-58.6129694,
 2016-Nov-29 01:00:00, , ,270.2607148,-58.1677958,
 2016-Nov-29 02:00:00, , ,269.3441489,-57.7164203,
 2016-Nov-29 03:00:00, , ,268.4514645,-57.2591867,
 2016-Nov-29 04:00:00, , ,267.5820025,-56.7964280,
 2016-Nov-29 05:00:00, , ,266.7351049,-56.3284666,
 2016-Nov-29 06:00:00, , ,265.9101176,-55.8556142,
 2016-Nov-29 07:00:00, , ,265.1063930,-55.3781721,
 2016-Nov-29 08:00:00, , ,264.3232913,-54.8964316,
 2016-Nov-29 09:00:00, , ,263.5601829,-54.4106738,
 2016-Nov-29 10:00:00, , ,262.8164493,-53.9211702,
 2016-Nov-29 11:00:00, , ,262.0914842,-53.4281829,
 2016-Nov-29 12:00:00, , ,261.3846948,-52.9319645,
 2016-Nov-29 13:00:00, , ,260.6955019,-52.4327588,
 2016-Nov-29 14:00:00, , ,260.0233411,-51.9308006,
 2016-Nov-29 15:00:00, , ,259.3676628,-51.4263162,
 2016-Nov-29 16:00:00, , ,258.7279323,-50.9195236,
 2016-Nov-29 17:00:00, , ,258.1036303,-50.4106326,
 2016-Nov-29 18:00:00, , ,257.4942528,-49.8998451,
 2016-Nov-29 19:00:00, , ,256.8993111,-49.3873552,
 2016-Nov-29 20:00:00, , ,256.3183315,-48.8733496,
 2016-Nov-29 21:00:00, , ,255.7508553,-48.3580076,
 2016-Nov-29 22:00:00, , ,255.1964386,-47.8415015,
 2016-Nov-29 23:00:00, , ,254.6546518,-47.3239963,
 2016-Nov-30 00:00:00, , ,254.1250797,-46.8056506,
 2016-Nov-30 01:00:00, , ,253.6073207,-46.2866160,
 2016-Nov-30 02:00:00, , ,253.1009868,-45.7670378,
 2016-Nov-30 03:00:00, , ,252.6057030,-45.2470550,
 2016-Nov-30 04:00:00, , ,252.1211071,-44.7268000,
 2016-Nov-30 05:00:00, , ,251.6468491,-44.2063995,
 2016-Nov-30 06:00:00, , ,251.1825912,-43.6859740,
 2016-Nov-30 07:00:00, , ,250.7280069,-43.1656383,
 2016-Nov-30 08:00:00, , ,250.2827808,-42.6455010,
 2016-Nov-30 09:00:00, , ,249.8466084,-42.1256656,
 2016-Nov-30 10:00:00, , ,249.4191954,-41.6062295,
 2016-Nov-30 11:00:00, , ,249.0002575,-41.0872850,
 2016-Nov-30 12:00:00, , ,248.5895202,-40.5689188,
 2016-Nov-30 13:00:00, , ,248.1867178,-40.0512122,
 2016-Nov-30 14:00:00, , ,247.7915938,-39.5342414,
 2016-Nov-30 15:00:00, , ,247.4039000,-39.0180775,
 2016-Nov-30 16:00:00, , ,247.0233966,-38.5027863,
 2016-Nov-30 17:00:00, , ,246.6498513,-37.9884287,
 2016-Nov-30 18:00:00, , ,246.2830396,-37.4750607,
 2016-Nov-30 19:00:00, , ,245.9227440,-36.9627332,
 2016-Nov-30 20:00:00, , ,245.5687541,-36.4514926,
 2016-Nov-30 21:00:00, , ,245.2208658,-35.9413803,
 2016-Nov-30 22:00:00, , ,244.8788815,-35.4324330,
 2016-Nov-30 23:00:00, , ,244.5426096,-34.9246827,
 2016-Dec-01 00:00:00, , ,244.2118641,-34.4181566,
